C/2022 U3 (Bok),h,07/28.6266/2024,33.6607,272.7868,189.1219,1.000954,4.826448,2000,7.5,4.0
# From MPEC 2023-W26
C/2022 U4 (Bok),e,52.0473,132.9161,88.9946,2750,0.0000068,0.99894607,0.0000,08/03.6205/2023,2000,g 10.5,4.0
# From MPEC 2024-H50
C/2022 V2 (Lemmon),e,98.9014,332.8640,168.9485,36.68254,0.0044362,0.94374023,1.8460,12/22.0/2024,2000,g 12.0,4.0
# From MPEC 2023-CD7
P/2022 W1 (Rankin),e,13.4653,38.8222,17.9033,6.973949,0.0535163,0.51661626,44.3031,12/22.0/2024,2000,g 12.5,4.0
# From MPEC 2024-EF7
C/2022 W2 (ATLAS),e,63.5096,320.4434,123.2965,344.0002,0.0001545,0.99091902,0.0000,03/08.7751/2023,2000,g 11.5,4.0
# From MPEC 2024-C04
C/2022 W3 (Leonard),e,103.5745,132.2890,116.5233,278.5334,0.0002120,0.99498245,0.0000,06/22.7809/2023,2000,g 13.0,4.0
# From MPEC 2023-M14
C/2022 Y1 (Hogan),e,18.8554,285.8827,174.8427,12.60246,0.0220303,0.76518581,16.6421,12/22.0/2024,2000,g  9.0,4.0
# From MPEC 2023-TM6
C/2022 Y2 (Lemmon),e,165.8846,216.3511,105.4207,19.69444,0.0112769,0.87099798,7.2243,12/22.0/2024,2000,g 13.5,4.0
# From MPEC 2024-GJ3
C/2023 A1 (Leonard),e,94.7388,318.2813,159.2492,221.0096,0.0003000,0.99169627,0.0000,03/18.6403/2023,2000,g 14.5,4.0
# From MPEC 2023-J95
C/2023 A2 (SWAN),e,94.7072,94.5047,142.5210,421.0005,0.0001141,0.99775299,0.0000,01/20.3632/2023,2000,g 13.5,4.0
# From MPEC 2024-X74
C/2023 A3 (Tsuchinshan-ATLAS),h,09/27.7416/2024,139.1108,21.5602,308.4930,1.000097,0.391450,2000,6.5,3.2
# From MPEC 2024-F34
P/2023 B1 (PANSTARRS),e,14.5887,78.5584,81.6036,7.062323,0.0525149,0.13057083,31.5024,12/22.0/2024,2000,g  5.5,4.0
# From MPEC 2023-XP6
C/2023 B2 (ATLAS),e,40.7688,218.1087,317.3610,590.0006,0.0000688,0.99704850,0.0000,03/10.5325/2023,2000,g 14.5,4.0
# From MPEC 2023-F81
P/2023 B3 (PANSTARRS),e,9.1577,153.9940,240.3266,4.548988,0.1015855,0.12268743,159.2684,12/22.0/2024,2000,g 10.5,4.0
# From MPEC 2024-X74
C/2023 C2 (ATLAS),e,48.3206,301.0043,357.4564,2742,0.0000069,0.99913606,0.0000,11/16.8110/2024,2000,g  7.0,4.0
# From MPEC 2024-D33
C/2023 E1 (ATLAS),e,38.2804,164.5161,105.9661,19.30192,0.0116226,0.94675969,6.2766,12/22.0/2024,2000,g 15.5,4.0
# From MPEC 2023-N01
C/2023 F1 (PANSTARRS),e,131.6960,25.3060,216.7383,254.5502,0.0002427,0.99328260,0.0000,06/28.2444/2023,2000,g 16.0,4.0
# From MPEC 2024-UA9
C/2023 F3 (ATLAS),h,02/02.6380/2025,145.9636,109.4626,265.5312,1.003910,5.190793,2000,6.0,4.0
# From MPEC 2024-RQ6
C/2023 H1 (PANSTARRS),e,21.7817,292.6473,333.7626,762.6756,0.0000468,0.99416820,0.0000,11/28.7161/2024,2000,g  8.5,4.0
# From MPEC 2024-GJ3
C/2023 H2 (Lemmon),e,113.7526,217.0536,150.6672,244.8693,0.0002572,0.99634541,0.0000,10/29.1658/2023,2000,g 14.0,4.0
# From MPEC 2023-R20
C/2023 H3 (PANSTARRS),e,2.4891,55.0958,193.2842,13.61690,0.0196149,0.61574470,6.0305,12/22.0/2024,2000,g 10.0,4.0
# From MPEC 2023-SQ0
A/2023 H4,e,76.5855,230.8243,65.0121,145.3153,0.0005626,0.98538970,0.0000,08/08.8837/2023,2000,g 18.0,22.0
# From MPEC 2024-X74
C/2023 H5 (Lemmon),h,06/30.2031/2025,97.8573,159.4802,60.0867,1.000367,4.312767,2000,7.0,4.0
# From MPEC 2024-UA9
P/2023 JN16 (Lemmon),e,3.7026,11.8760,353.1528,2.695386,0.2227269,0.14680211,358.0841,12/22.0/2024,2000,g 14.0,4.0
# From MPEC 2024-GJ3
C/2023 K1 (ATLAS),e,137.9979,223.7029,337.4350,671.7939,0.0000566,0.99696505,0.0000,09/07.6677/2023,2000,g 13.0,4.0
# From MPEC 2023-N01
P/2023 M1 (PANSTARRS),e,12.2886,216.8604,79.6980,6.843514,0.0550535,0.58700207,20.5688,12/22.0/2024,2000,g 13.5,4.0
# From MPEC 2024-TD8
P/2023 M2 (PANSTARRS),e,19.7278,83.2498,243.2814,5.573601,0.0749032,0.36997943,38.5262,12/22.0/2024,2000,g 12.5,4.0
# From MPEC 2024-TP3
P/2023 M4 (ATLAS),e,7.5922,296.2910,320.5916,5.448579,0.0774960,0.27893410,76.1653,12/22.0/2024,2000,g  7.5,4.0
# From MPEC 2024-MB8
C/2023 P1 (Nishimura),e,132.4767,66.8456,116.2786,56.72076,0.0023072,0.99603822,0.0000,09/17.6460/2023,2000,g 10.0,4.0
# From MPEC 2024-X74
C/2023 Q1 (PANSTARRS),h,12/01.1427/2024,36.6428,7.1297,84.4154,1.005237,2.575703,2000,10.0,4.0
# From MPEC 2024-N80
C/2023 Q2 (PANSTARRS),e,104.0615,92.6795,171.7061,350.6707,0.0001501,0.99084767,0.0000,06/24.0085/2024,2000,g 11.5,4.0
# From MPEC 2024-X74
C/2023 R1 (PANSTARRS),h,04/13.5715/2026,149.3164,62.5558,144.2833,1.001931,3.569409,2000,6.0,4.0
# From MPEC 2024-L77
C/2023 R2 (PANSTARRS),h,08/12.1487/2024,30.6889,188.9104,337.3044,1.000235,0.905168,2000,10.5,4.0
# From MPEC 2023-UR6
A/2023 R3,e,12.0839,347.3486,86.9157,694.2420,0.0000539,0.99804392,0.0000,12/18.1936/2023,2000,g 20.0,22.0
# From MPEC 2024-X74
C/2023 RN3 (ATLAS),e,10.3531,207.0673,130.5579,10.17180,0.0303814,0.49093421,21.3184,12/22.0/2024,2000,g  7.5,4.0
# From MPEC 2024-X74
P/2023 S1,e,9.1570,317.2905,180.2865,3.845173,0.1307165,0.31870572,351.6204,12/22.0/2024,2000,g 11.5,4.0
# From MPEC 2023-XP6
C/2023 S2 (ATLAS),e,19.8739,229.8183,78.6419,203.4486,0.0003396,0.99479237,0.0000,10/16.1519/2023,2000,g 15.0,4.0
# From MPEC 2024-P23
C/2023 S3 (Lemmon),e,140.4971,233.8322,281.5576,28.47774,0.0064855,0.97086104,0.0000,01/19.6394/2024,2000,g 16.0,4.0
# From MPEC 2024-BE0
P/2023 T1 (PANSTARRS),e,6.6123,249.5760,202.8519,4.226176,0.1134443,0.33336119,24.1816,12/22.0/2024,2000,g 14.0,4.0
# From MPEC 2024-GJ3
C/2023 T2 (Borisov),e,48.5951,317.5307,111.2037,225.7376,0.0002906,0.99115902,0.0000,12/22.7844/2023,2000,g 14.5,4.0
# From MPEC 2024-X74
C/2023 T3 (Fuls),e,27.2221,246.0002,302.8463,792.0969,0.0000442,0.99552035,0.0000,01/25.3373/2025,2000,g  8.5,4.0
# From MPEC 2024-VB7
C/2023 TD22 (Lemmon),e,170.4898,5.5575,32.5380,48.23936,0.0029417,0.95114335,0.2845,12/22.0/2024,2000,g 12.5,4.0
# From MPEC 2024-X74
C/2023 U1 (Fuls),e,108.1457,305.8070,255.6299,2290,0.0000090,0.99782807,0.0000,10/12.7913/2024,2000,g  8.0,4.0
# From MPEC 2024-X74
C/2023 V1 (Lemmon),h,07/13.0371/2025,102.0136,15.0348,103.3124,1.000248,5.092569,2000,8.5,4.0
# From MPEC 2024-VJ2
P/2023 V2 (PANSTARRS),e,9.8881,95.4735,330.5338,7.226026,0.0507405,0.57042929,16.3480,12/22.0/2024,2000,g 13.5,4.0
# From MPEC 2024-A43
C/2023 V3 (PANSTARRS),e,40.5223,91.3182,291.8693,13.23218,0.0204766,0.66162769,10.2924,12/22.0/2024,2000,g 11.5,4.0
# From MPEC 2024-UQ8
C/2023 V4 (Camarasa-Duszanowicz),h,05/30.3729/2024,67.1303,66.3258,50.8612,1.001053,1.121770,2000,12.0,4.0
# From MPEC 2024-GJ3
C/2023 V5 (Leonard),h,12/13.8897/2023,73.5696,31.5195,56.9629,1.009383,0.846252,2000,21.5,4.0
# From MPEC 2024-UA9
P/2023 V6 (PANSTARRS),e,3.9709,189.7888,193.1273,5.309109,0.0805697,0.17626662,59.9730,12/22.0/2024,2000,g 11.5,4.0
# From MPEC 2024-GJ3
C/2023 X1 (Leonard),e,110.5872,137.0057,321.4639,156.9920,0.0005011,0.99394489,0.0000,10/18.0390/2023,2000,g 13.5,3.2
# From MPEC 2024-X74
C/2023 X2 (Lemmon),h,12/27.6073/2025,76.9929,66.3097,64.6964,1.000859,5.090405,2000,8.5,3.2
# From MPEC 2024-A43
P/2023 X3 (PANSTARRS),e,4.4834,62.0118,40.8366,4.245481,0.1126714,0.28623313,27.4895,12/22.0/2024,2000,g 15.5,4.0
# From MPEC 2024-JU4
C/2023 X4 (Hogan),e,11.5946,28.7672,100.5597,9.915359,0.0315676,0.63106201,6.6647,12/22.0/2024,2000,g 12.0,4.0
# From MPEC 2024-DA2
C/2023 X7 (PANSTARRS),h,05/15.0104/2025,69.0613,119.2040,354.3699,1.002688,4.820511,2000,9.0,4.0
# From MPEC 2024-JU4
P/2023 Y1 (Gibbs),e,6.3842,78.8556,51.4571,3.749481,0.1357524,0.44528906,52.6940,12/22.0/2024,2000,g 17.0,4.0
# From MPEC 2024-F34
P/2023 Y2 (Gibbs),e,6.9929,79.2275,16.8661,3.746227,0.1359293,0.39229702,67.9612,12/22.0/2024,2000,g 15.5,4.0
# From MPEC 2024-X74
C/2024 A1 (ATLAS),h,06/13.7166/2025,94.4468,112.1410,353.3099,1.001563,3.875394,2000,7.0,4.0
# From MPEC 2024-X74
C/2024 A2 (ATLAS),e,119.1168,78.1670,295.5599,32.58075,0.0052998,0.94226834,1.2565,12/22.0/2024,2000,g 12.5,4.0
# From MPEC 2024-X74
C/2024 B1 (Lemmon),h,10/07.7035/2024,70.9041,79.1878,66.2099,1.000845,1.633711,2000,13.0,4.0
# From MPEC 2024-X74
C/2024 B2 (Lemmon),e,99.8487,294.3789,130.3401,3651,0.0000045,0.99888313,0.0000,10/06.0853/2023,2000,g 11.5,4.0
# From MPEC 2024-M41
C/2024 C1 (PANSTARRS),e,14.2269,83.8087,94.4664,10.57043,0.0286791,0.58252134,3.2445,12/22.0/2024,2000,g 11.5,4.0
# From MPEC 2024-JU4
C/2024 C2 (PANSTARRS),e,27.2843,66.4411,87.5441,16.20923,0.0151029,0.44529381,358.8150,12/22.0/2024,2000,g  6.0,4.0
# From MPEC 2024-GJ3
C/2024 C3 (PANSTARRS),e,22.4596,359.7087,159.6578,11.65761,0.0247622,0.42418607,10.1467,12/22.0/2024,2000,g  9.0,4.0
# From MPEC 2024-Q20
C/2024 C4 (ATLAS),e,79.2855,220.6819,321.5099,83.74510,0.0012861,0.98243571,0.0000,01/30.1923/2024,2000,g 14.5,4.0
# From MPEC 2024-EG1
A/2024 D1,e,132.4470,179.6612,125.7530,1728,0.0000137,0.99612286,0.0000,12/05.2178/2027,2000,g 11.0,2.0
# From MPEC 2024-X74
C/2024 E1 (Wierzchos),h,01/20.7674/2026,75.2375,108.0859,243.6471,1.000031,0.565661,2000,7.0,4.0
# From MPEC 2024-JU4
C/2024 E2 (Bok),e,155.6469,135.6498,358.0737,51.61670,0.0026578,0.85096170,1.1286,12/22.0/2024,2000,g  8.0,4.0
# From MPEC 2024-JU4
P/2024 F1 (PANSTARRS),e,7.0056,251.5413,229.5567,3.443375,0.1542509,0.45993713,65.2940,12/22.0/2024,2000,g 16.0,4.0
# From MPEC 2024-Q20
C/2024 F2 (PANSTARRS),e,13.7416,138.9435,112.9033,9.947749,0.0314135,0.60109492,4.5840,12/22.0/2024,2000,g 11.0,4.0
# From MPEC 2024-UA9
P/2024 FG9 (Nanshan-Hahn),e,1.7313,253.0426,245.9195,3.256899,0.1676863,0.50984129,36.1594,12/22.0/2024,2000,g 14.0,4.0
# From MPEC 2024-PC5
C/2024 G1 (Wierzchos),e,95.3992,30.6015,128.2231,122.2521,0.0007292,0.96785156,0.0452,12/22.0/2024,2000,g 10.0,4.0
# From MPEC 2024-JU4
C/2024 G2 (ATLAS),e,122.1289,171.3993,328.7892,889.1363,0.0000372,0.99398771,0.0000,06/13.7495/2025,2000,g  7.0,4.0
# From MPEC 2024-X74
C/2024 G3 (ATLAS),h,01/13.4353/2025,116.8468,220.3376,108.1242,1.000003,0.093536,2000,9.0,4.0
# From MPEC 2024-P23
C/2024 G4 (PANSTARRS),e,33.0264,152.9906,131.4283,2973,0.0000061,0.99835171,0.0000,03/21.7302/2026,2000,g  8.0,4.0
# From MPEC 2024-JC6
C/2024 G5 (Leonard),e,50.3877,316.3969,209.5668,549.6613,0.0000765,0.99462784,0.0000,09/07.0125/2024,2000,g 13.0,4.0
# From MPEC 2024-RQ6
C/2024 G6 (ATLAS),h,02/20.9080/2026,120.4580,250.9518,23.4562,1.002355,6.429220,2000,5.5,4.0
# From MPEC 2024-Q20
